{"type": "FeatureCollection", "features": [ {"type": "Feature", "properties": {"norad_id": 57401, "name": "TIANMU-1 09", "group": "weather", "lat": 80.07639293004767, "lon": -100.18502826920098, "alt_km": 469.72101464205207, "timestamp": "2025-12-09T14:52:25.808577+00:00", "meta": {"OBJECT_NAME": "TIANMU-1 09", "OBJECT_ID": "2023-101C", "EPOCH": "2025-12-09T08:09:56.331648", "MEAN_MOTION": 15.28005264, "ECCENTRICITY": 0.00068191, "INCLINATION": 97.2821, "RA_OF_ASC_NODE": 32.5788, "ARG_OF_PERICENTER": 92.9533, "MEAN_ANOMALY": 267.2488, "EPHEMERIS_TYPE": 0, "CLASSIFICATION_TYPE": "U", "NORAD_CAT_ID": 57401, "ELEMENT_SET_NO": 999, "REV_AT_EPOCH": 13263, "BSTAR": 0.0003833906, "MEAN_MOTION_DOT": 0.00010413, "MEAN_MOTION_DDOT": 0}, "tle": {"line1": "1 57401U 23101C   25343.34023532  .00010413  00000+0  38339-3 0  9990", "line2": "2 57401  97.2821  32.5788 0006819  92.9533 267.2488 15.28005264132631"}}, "geometry": {"type": "Point", "coordinates": [-100.18502826920098, 80.07639293004767]}}, {"type": "Feature", "properties": {"norad_id": 57402, "name": "TIANMU-1 10", "group": "weather", "lat": -82.602101640656, "lon": 133.30574561491198, "alt_km": 495.02911681570095, "timestamp": "2025-12-09T14:52:25.808590+00:00", "meta": {"OBJECT_NAME": "TIANMU-1 10", "OBJECT_ID": "2023-101D", "EPOCH": "2025-12-09T07:24:52.778880", "MEAN_MOTION": 15.27995074, "ECCENTRICITY": 0.00085654, "INCLINATION": 97.2902, "RA_OF_ASC_NODE": 33.3944, "ARG_OF_PERICENTER": 93.2292, "MEAN_ANOMALY": 266.9928, "EPHEMERIS_TYPE": 0, "CLASSIFICATION_TYPE": "U", "NORAD_CAT_ID": 57402, "ELEMENT_SET_NO": 999, "REV_AT_EPOCH": 13262, "BSTAR": 0.00038065687, "MEAN_MOTION_DOT": 0.00010338, "MEAN_MOTION_DDOT": 0}, "tle": {"line1": "1 57402U 23101D   25343.30894420  .00010338  00000+0  38066-3 0  9992", "line2": "2 57402  97.2902  33.3944 0008565  93.2292 266.9928 15.27995074132621"}}, "geometry": {"type": "Point", "coordinates": [133.30574561491198, -82.602101640656]}}, {"type": "Feature", "properties": {"norad_id": 57490, "name": "FENGYUN 3F", "group": "weather", "lat": -57.95184683043976, "lon": 66.1355291698533, "alt_km": 833.2037783255892, "timestamp": "2025-12-09T14:52:25.808600+00:00", "meta": {"OBJECT_NAME": "FENGYUN 3F", "OBJECT_ID": "2023-111A", "EPOCH": "2025-12-09T06:41:43.211040", "MEAN_MOTION": 14.19892273, "ECCENTRICITY": 6.535e-05, "INCLINATION": 98.7088, "RA_OF_ASC_NODE": 51.6282, "ARG_OF_PERICENTER": 95.6643, "MEAN_ANOMALY": 264.4608, "EPHEMERIS_TYPE": 0, "CLASSIFICATION_TYPE": "U", "NORAD_CAT_ID": 57490, "ELEMENT_SET_NO": 999, "REV_AT_EPOCH": 12191, "BSTAR": 0.00010024572, "MEAN_MOTION_DOT": 1.69e-06, "MEAN_MOTION_DDOT": 0}, "tle": {"line1": "1 57490U 23111A   25343.27897235  .00000169  00000+0  10025-3 0  9999", "line2": "2 57490  98.7088  51.6282 0000653  95.6643 264.4608 14.19892273121918"}}, "geometry": {"type": "Point", "coordinates": [66.1355291698533, -57.95184683043976]}}, {"type": "Feature", "properties": {"norad_id": 58584, "name": "ARKTIKA-M 2", "group": "weather", "lat": 61.82415438900135, "lon": -75.32794033637325, "alt_km": 36690.44067253087, "timestamp": "2025-12-09T14:52:25.808613+00:00", "meta": {"OBJECT_NAME": "ARKTIKA-M 2", "OBJECT_ID": "2023-198A", "EPOCH": "2025-12-08T20:10:13.977120", "MEAN_MOTION": 2.0060476, "ECCENTRICITY": 0.68646991, "INCLINATION": 63.2247, "RA_OF_ASC_NODE": 175.3152, "ARG_OF_PERICENTER": 268.1185, "MEAN_ANOMALY": 18.8267, "EPHEMERIS_TYPE": 0, "CLASSIFICATION_TYPE": "U", "NORAD_CAT_ID": 58584, "ELEMENT_SET_NO": 999, "REV_AT_EPOCH": 1450, "BSTAR": 0, "MEAN_MOTION_DOT": 1.66e-06, "MEAN_MOTION_DDOT": 0}, "tle": {"line1": "1 58584U 23198A   25342.84043955  .00000166  00000+0  00000+0 0  9998", "line2": "2 58584  63.2247 175.3152 6864699 268.1185  18.8267  2.00604760 14506"}}, "geometry": {"type": "Point", "coordinates": [-75.32794033637325, 61.82415438900135]}}, {"type": "Feature", "properties": {"norad_id": 58645, "name": "TIANMU-1 11", "group": "weather", "lat": 52.51001115530075, "lon": -166.99980813742542, "alt_km": 492.72937752018424, "timestamp": "2025-12-09T14:52:25.809269+00:00", "meta": {"OBJECT_NAME": "TIANMU-1 11", "OBJECT_ID": "2023-205A", "EPOCH": "2025-12-09T08:01:06.193344", "MEAN_MOTION": 15.24534152, "ECCENTRICITY": 0.00082123, "INCLINATION": 97.3608, "RA_OF_ASC_NODE": 3.0171, "ARG_OF_PERICENTER": 324.2373, "MEAN_ANOMALY": 35.8314, "EPHEMERIS_TYPE": 0, "CLASSIFICATION_TYPE": "U", "NORAD_CAT_ID": 58645, "ELEMENT_SET_NO": 999, "REV_AT_EPOCH": 10857, "BSTAR": 0.00035962068, "MEAN_MOTION_DOT": 8.79e-05, "MEAN_MOTION_DDOT": 0}, "tle": {"line1": "1 58645U 23205A   25343.33409946  .00008790  00000+0  35962-3 0  9996", "line2": "2 58645  97.3608   3.0171 0008212 324.2373  35.8314 15.24534152108579"}}, "geometry": {"type": "Point", "coordinates": [-166.99980813742542, 52.51001115530075]}}, {"type": "Feature", "properties": {"norad_id": 58646, "name": "TIANMU-1 12", "group": "weather", "lat": -19.597304485601867, "lon": 5.741727916324632, "alt_km": 494.29006326645685, "timestamp": "2025-12-09T14:52:25.809294+00:00", "meta": {"OBJECT_NAME": "TIANMU-1 12", "OBJECT_ID": "2023-205B", "EPOCH": "2025-12-08T16:54:17.464320", "MEAN_MOTION": 15.2440473, "ECCENTRICITY": 0.00061116, "INCLINATION": 97.3594, "RA_OF_ASC_NODE": 2.2053, "ARG_OF_PERICENTER": 309.5629, "MEAN_ANOMALY": 50.5068, "EPHEMERIS_TYPE": 0, "CLASSIFICATION_TYPE": "U", "NORAD_CAT_ID": 58646, "ELEMENT_SET_NO": 999, "REV_AT_EPOCH": 10846, "BSTAR": 0.00036097392, "MEAN_MOTION_DOT": 8.785e-05, "MEAN_MOTION_DDOT": 0}, "tle": {"line1": "1 58646U 23205B   25342.70436880  .00008785  00000+0  36097-3 0  9998", "line2": "2 58646  97.3594   2.2053 0006111 309.5629  50.5068 15.24404730108466"}}, "geometry": {"type": "Point", "coordinates": [5.741727916324632, -19.597304485601867]}}, {"type": "Feature", "properties": {"norad_id": 58647, "name": "TIANMU-1 13", "group": "weather", "lat": 23.914396361663385, "lon": -173.40914953654416, "alt_km": 494.39451712839127, "timestamp": "2025-12-09T14:52:25.809313+00:00", "meta": {"OBJECT_NAME": "TIANMU-1 13", "OBJECT_ID": "2023-205C", "EPOCH": "2025-12-09T07:53:27.087072", "MEAN_MOTION": 15.24458031, "ECCENTRICITY": 0.00060697, "INCLINATION": 97.3624, "RA_OF_ASC_NODE": 3.018, "ARG_OF_PERICENTER": 282.9229, "MEAN_ANOMALY": 77.1331, "EPHEMERIS_TYPE": 0, "CLASSIFICATION_TYPE": "U", "NORAD_CAT_ID": 58647, "ELEMENT_SET_NO": 999, "REV_AT_EPOCH": 10855, "BSTAR": 0.0003728203, "MEAN_MOTION_DOT": 9.091e-05, "MEAN_MOTION_DDOT": 0}, "tle": {"line1": "1 58647U 23205C   25343.32878573  .00009091  00000+0  37282-3 0  9995", "line2": "2 58647  97.3624   3.0180 0006069 282.9229  77.1331 15.24458031108554"}}, "geometry": {"type": "Point", "coordinates": [-173.40914953654416, 23.914396361663385]}}, {"type": "Feature", "properties": {"norad_id": 58648, "name": "TIANMU-1 14", "group": "weather", "lat": -65.96287523830107, "lon": 165.8194302059188, "alt_km": 496.06564877155233, "timestamp": "2025-12-09T14:52:25.809330+00:00", "meta": {"OBJECT_NAME": "TIANMU-1 14", "OBJECT_ID": "2023-205D", "EPOCH": "2025-12-09T07:29:29.505120", "MEAN_MOTION": 15.24441611, "ECCENTRICITY": 0.00069209, "INCLINATION": 97.3555, "RA_OF_ASC_NODE": 2.3535, "ARG_OF_PERICENTER": 288.0763, "MEAN_ANOMALY": 71.972, "EPHEMERIS_TYPE": 0, "CLASSIFICATION_TYPE": "U", "NORAD_CAT_ID": 58648, "ELEMENT_SET_NO": 999, "REV_AT_EPOCH": 10855, "BSTAR": 0.00035535313, "MEAN_MOTION_DOT": 8.658e-05, "MEAN_MOTION_DDOT": 0}, "tle": {"line1": "1 58648U 23205D   25343.31214705  .00008658  00000+0  35535-3 0  9993", "line2": "2 58648  97.3555   2.3535 0006920 288.0763  71.9720 15.24441611108550"}}, "geometry": {"type": "Point", "coordinates": [165.8194302059188, -65.96287523830107]}}, {"type": "Feature", "properties": {"norad_id": 58660, "name": "TIANMU-1 19", "group": "weather", "lat": 73.61474789876915, "lon": -58.95356844969782, "alt_km": 478.1401596042597, "timestamp": "2025-12-09T14:52:25.809349+00:00", "meta": {"OBJECT_NAME": "TIANMU-1 19", "OBJECT_ID": "2023-208A", "EPOCH": "2025-12-09T06:33:27.421056", "MEAN_MOTION": 15.27750002, "ECCENTRICITY": 0.00040497, "INCLINATION": 97.439, "RA_OF_ASC_NODE": 94.3176, "ARG_OF_PERICENTER": 268.5778, "MEAN_ANOMALY": 91.4997, "EPHEMERIS_TYPE": 0, "CLASSIFICATION_TYPE": "U", "NORAD_CAT_ID": 58660, "ELEMENT_SET_NO": 999, "REV_AT_EPOCH": 10829, "BSTAR": 0.00048420548, "MEAN_MOTION_DOT": 0.00013064, "MEAN_MOTION_DDOT": 0}, "tle": {"line1": "1 58660U 23208A   25343.27323404  .00013064  00000+0  48421-3 0  9997", "line2": "2 58660  97.4390  94.3176 0004049 268.5778  91.4997 15.27750002108297"}}, "geometry": {"type": "Point", "coordinates": [-58.95356844969782, 73.61474789876915]}}, {"type": "Feature", "properties": {"norad_id": 58661, "name": "TIANMU-1 20", "group": "weather", "lat": 14.319268528772085, "lon": -82.98247903299149, "alt_km": 481.76075631526146, "timestamp": "2025-12-09T14:52:25.809367+00:00", "meta": {"OBJECT_NAME": "TIANMU-1 20", "OBJECT_ID": "2023-208B", "EPOCH": "2025-12-09T06:17:54.040992", "MEAN_MOTION": 15.28941074, "ECCENTRICITY": 0.00063317, "INCLINATION": 97.4328, "RA_OF_ASC_NODE": 94.751, "ARG_OF_PERICENTER": 280.5986, "MEAN_ANOMALY": 79.454, "EPHEMERIS_TYPE": 0, "CLASSIFICATION_TYPE": "U", "NORAD_CAT_ID": 58661, "ELEMENT_SET_NO": 999, "REV_AT_EPOCH": 10836, "BSTAR": 0.0004653633, "MEAN_MOTION_DOT": 0.00013022, "MEAN_MOTION_DDOT": 0}, "tle": {"line1": "1 58661U 23208B   25343.26243103  .00013022  00000+0  46536-3 0  9993", "line2": "2 58661  97.4328  94.7510 0006331 280.5986  79.4540 15.28941074108366"}}, "geometry": {"type": "Point", "coordinates": [-82.98247903299149, 14.319268528772085]}}]}